[{"OBJECT_NAME":"MESON-1","OBJECT_ID":"2024-043AK","EPOCH":"2026-03-09T21:36:16.481664","MEAN_MOTION":15.29893494,"ECCENTRICITY":0.00095452,"INCLINATION":97.5469,"RA_OF_ASC_NODE":205.2839,"ARG_OF_PERICENTER":227.1432,"MEAN_ANOMALY":132.9007,"EPHEMERIS_TYPE":0,"CLASSIFICATION_TYPE":"U","NORAD_CAT_ID":59131,"ELEMENT_SET_NO":999,"REV_AT_EPOCH":11189,"BSTAR":0.0002974823,"MEAN_MOTION_DOT":8.544e-5,"MEAN_MOTION_DDOT":0},{"OBJECT_NAME":"STARLINK-32229","OBJECT_ID":"2024-144M","EPOCH":"2026-03-09T15:29:14.269056","MEAN_MOTION":15.3019503,"ECCENTRICITY":0.0001003,"INCLINATION":53.1594,"RA_OF_ASC_NODE":217.2449,"ARG_OF_PERICENTER":85.0457,"MEAN_ANOMALY":275.0658,"EPHEMERIS_TYPE":0,"CLASSIFICATION_TYPE":"U","NORAD_CAT_ID":60436,"ELEMENT_SET_NO":999,"REV_AT_EPOCH":8930,"BSTAR":-5.4522e-5,"MEAN_MOTION_DOT":-1.973e-5,"MEAN_MOTION_DDOT":0}]
